CCSDS_OMM_VERS = 2.0
CREATION_DATE  = 
ORIGINATOR     = 

OBJECT_NAME    = SL-16 R/B
OBJECT_ID      = 1998-043G
CENTER_NAME    = EARTH
REF_FRAME      = TEME
TIME_SYSTEM    = UTC
MEAN_ELEMENT_THEORY = SGP/SGP4

EPOCH          = 2026-02-17T17:38:24.696384
MEAN_MOTION    = 14.26044834
ECCENTRICITY   = .0010948
INCLINATION    = 98.8221
RA_OF_ASC_NODE = 1.9612
ARG_OF_PERICENTER = 73.8652
MEAN_ANOMALY   = 286.3732

EPHEMERIS_TYPE = 0
CLASSIFICATION_TYPE = U
NORAD_CAT_ID   = 25400
ELEMENT_SET_NO = 999
REV_AT_EPOCH   = 43614
BSTAR          = .42454E-4
MEAN_MOTION_DOT = .56E-6
MEAN_MOTION_DDOT = 0

CCSDS_OMM_VERS = 2.0
CREATION_DATE  = 
ORIGINATOR     = 

OBJECT_NAME    = SL-16 R/B
OBJECT_ID      = 1998-045B
CENTER_NAME    = EARTH
REF_FRAME      = TEME
TIME_SYSTEM    = UTC
MEAN_ELEMENT_THEORY = SGP/SGP4

EPOCH          = 2026-02-17T17:24:24.723360
MEAN_MOTION    = 14.16189616
ECCENTRICITY   = .0005768
INCLINATION    = 71.0091
RA_OF_ASC_NODE = 223.5570
ARG_OF_PERICENTER = 43.4635
MEAN_ANOMALY   = 316.6942

EPHEMERIS_TYPE = 0
CLASSIFICATION_TYPE = U
NORAD_CAT_ID   = 25407
ELEMENT_SET_NO = 999
REV_AT_EPOCH   = 42427
BSTAR          = .15234E-3
MEAN_MOTION_DOT = .254E-5
MEAN_MOTION_DDOT = 0

CCSDS_OMM_VERS = 2.0
CREATION_DATE  = 
ORIGINATOR     = 

OBJECT_NAME    = ISS (ZARYA)
OBJECT_ID      = 1998-067A
CENTER_NAME    = EARTH
REF_FRAME      = TEME
TIME_SYSTEM    = UTC
MEAN_ELEMENT_THEORY = SGP/SGP4

EPOCH          = 2026-02-18T05:10:04.187136
MEAN_MOTION    = 15.48678459
ECCENTRICITY   = .00109545
INCLINATION    = 51.6322
RA_OF_ASC_NODE = 168.6154
ARG_OF_PERICENTER = 110.1068
MEAN_ANOMALY   = 250.1100

EPHEMERIS_TYPE = 0
CLASSIFICATION_TYPE = U
NORAD_CAT_ID   = 25544
ELEMENT_SET_NO = 999
REV_AT_EPOCH   = 55331
BSTAR          = .18043872E-3
MEAN_MOTION_DOT = .9407E-4
MEAN_MOTION_DDOT = 0

CCSDS_OMM_VERS = 2.0
CREATION_DATE  = 
ORIGINATOR     = 

OBJECT_NAME    = CZ-4B R/B
OBJECT_ID      = 1999-025C
CENTER_NAME    = EARTH
REF_FRAME      = TEME
TIME_SYSTEM    = UTC
MEAN_ELEMENT_THEORY = SGP/SGP4

EPOCH          = 2026-02-18T02:47:09.661920
MEAN_MOTION    = 14.18261343
ECCENTRICITY   = .0037782
INCLINATION    = 98.6667
RA_OF_ASC_NODE = 93.8575
ARG_OF_PERICENTER = 42.6131
MEAN_ANOMALY   = 340.6425

EPHEMERIS_TYPE = 0
CLASSIFICATION_TYPE = U
NORAD_CAT_ID   = 25732
ELEMENT_SET_NO = 999
REV_AT_EPOCH   = 38539
BSTAR          = .4342462E-4
MEAN_MOTION_DOT = .47E-6
MEAN_MOTION_DDOT = 0

CCSDS_OMM_VERS = 2.0
CREATION_DATE  = 
ORIGINATOR     = 

OBJECT_NAME    = OKEAN-O
OBJECT_ID      = 1999-039A
CENTER_NAME    = EARTH
REF_FRAME      = TEME
TIME_SYSTEM    = UTC
MEAN_ELEMENT_THEORY = SGP/SGP4

EPOCH          = 2026-02-18T04:26:11.261184
MEAN_MOTION    = 14.80302526
ECCENTRICITY   = .00017525
INCLINATION    = 97.9486
RA_OF_ASC_NODE = 109.2705
ARG_OF_PERICENTER = 79.9783
MEAN_ANOMALY   = 280.1627

EPHEMERIS_TYPE = 0
CLASSIFICATION_TYPE = U
NORAD_CAT_ID   = 25860
ELEMENT_SET_NO = 999
REV_AT_EPOCH   = 43150
BSTAR          = .97020729E-4
MEAN_MOTION_DOT = .687E-5
MEAN_MOTION_DDOT = 0

CCSDS_OMM_VERS = 2.0
CREATION_DATE  = 
ORIGINATOR     = 

OBJECT_NAME    = SL-16 R/B
OBJECT_ID      = 1999-039B
CENTER_NAME    = EARTH
REF_FRAME      = TEME
TIME_SYSTEM    = UTC
MEAN_ELEMENT_THEORY = SGP/SGP4

EPOCH          = 2026-02-18T02:46:28.147584
MEAN_MOTION    = 14.81702805
ECCENTRICITY   = .00139279
INCLINATION    = 98.0010
RA_OF_ASC_NODE = 108.2371
ARG_OF_PERICENTER = 325.4730
MEAN_ANOMALY   = 34.5577

EPHEMERIS_TYPE = 0
CLASSIFICATION_TYPE = U
NORAD_CAT_ID   = 25861
ELEMENT_SET_NO = 999
REV_AT_EPOCH   = 43396
BSTAR          = .75686482E-4
MEAN_MOTION_DOT = .543E-5
MEAN_MOTION_DDOT = 0

CCSDS_OMM_VERS = 2.0
CREATION_DATE  = 
ORIGINATOR     = 

OBJECT_NAME    = DELTA 2 R/B
OBJECT_ID      = 1999-041E
CENTER_NAME    = EARTH
REF_FRAME      = TEME
TIME_SYSTEM    = UTC
MEAN_ELEMENT_THEORY = SGP/SGP4

EPOCH          = 2026-02-18T06:09:42.150240
MEAN_MOTION    = 14.11764336
ECCENTRICITY   = .05022213
INCLINATION    = 51.7660
RA_OF_ASC_NODE = 18.8861
ARG_OF_PERICENTER = 291.0392
MEAN_ANOMALY   = 63.7535

EPHEMERIS_TYPE = 0
CLASSIFICATION_TYPE = U
NORAD_CAT_ID   = 25876
ELEMENT_SET_NO = 999
REV_AT_EPOCH   = 36028
BSTAR          = .32124927E-3
MEAN_MOTION_DOT = .1764E-4
MEAN_MOTION_DDOT = 0

CCSDS_OMM_VERS = 2.0
CREATION_DATE  = 
ORIGINATOR     = 

OBJECT_NAME    = HELIOS 1B
OBJECT_ID      = 1999-064A
CENTER_NAME    = EARTH
REF_FRAME      = TEME
TIME_SYSTEM    = UTC
MEAN_ELEMENT_THEORY = SGP/SGP4

EPOCH          = 2026-02-18T04:59:47.606496
MEAN_MOTION    = 14.87613678
ECCENTRICITY   = .00023345
INCLINATION    = 98.1719
RA_OF_ASC_NODE = 310.8772
ARG_OF_PERICENTER = 100.7799
MEAN_ANOMALY   = 259.3679

EPHEMERIS_TYPE = 0
CLASSIFICATION_TYPE = U
NORAD_CAT_ID   = 25977
ELEMENT_SET_NO = 999
REV_AT_EPOCH   = 68236
BSTAR          = .20532817E-3
MEAN_MOTION_DOT = .1808E-4
MEAN_MOTION_DDOT = 0

CCSDS_OMM_VERS = 2.0
CREATION_DATE  = 
ORIGINATOR     = 

OBJECT_NAME    = TERRA
OBJECT_ID      = 1999-068A
CENTER_NAME    = EARTH
REF_FRAME      = TEME
TIME_SYSTEM    = UTC
MEAN_ELEMENT_THEORY = SGP/SGP4

EPOCH          = 2026-02-18T06:15:17.707104
MEAN_MOTION    = 14.60992822
ECCENTRICITY   = .00013187
INCLINATION    = 97.9635
RA_OF_ASC_NODE = 103.4335
ARG_OF_PERICENTER = 210.5290
MEAN_ANOMALY   = 188.0114

EPHEMERIS_TYPE = 0
CLASSIFICATION_TYPE = U
NORAD_CAT_ID   = 25994
ELEMENT_SET_NO = 999
REV_AT_EPOCH   = 39224
BSTAR          = .99365912E-4
MEAN_MOTION_DOT = .443E-5
MEAN_MOTION_DDOT = 0

CCSDS_OMM_VERS = 2.0
CREATION_DATE  = 
ORIGINATOR     = 

OBJECT_NAME    = SL-16 R/B
OBJECT_ID      = 2000-006B
CENTER_NAME    = EARTH
REF_FRAME      = TEME
TIME_SYSTEM    = UTC
MEAN_ELEMENT_THEORY = SGP/SGP4

EPOCH          = 2026-02-18T05:31:16.375296
MEAN_MOTION    = 14.15818379
ECCENTRICITY   = .00179625
INCLINATION    = 71.0023
RA_OF_ASC_NODE = 138.7546
ARG_OF_PERICENTER = 217.4262
MEAN_ANOMALY   = 142.5611

EPHEMERIS_TYPE = 0
CLASSIFICATION_TYPE = U
NORAD_CAT_ID   = 26070
ELEMENT_SET_NO = 999
REV_AT_EPOCH   = 34580
BSTAR          = -.24053899E-4
MEAN_MOTION_DOT = -.95E-6
MEAN_MOTION_DDOT = 0

CCSDS_OMM_VERS = 2.0
CREATION_DATE  = 
ORIGINATOR     = 

OBJECT_NAME    = TITAN 4B R/B
OBJECT_ID      = 2000-047B
CENTER_NAME    = EARTH
REF_FRAME      = TEME
TIME_SYSTEM    = UTC
MEAN_ELEMENT_THEORY = SGP/SGP4

EPOCH          = 2026-02-18T05:10:10.938432
MEAN_MOTION    = 15.09384542
ECCENTRICITY   = .00373106
INCLINATION    = 67.9879
RA_OF_ASC_NODE = 95.2654
ARG_OF_PERICENTER = 59.0735
MEAN_ANOMALY   = 301.4072

EPHEMERIS_TYPE = 0
CLASSIFICATION_TYPE = U
NORAD_CAT_ID   = 26474
ELEMENT_SET_NO = 999
REV_AT_EPOCH   = 38997
BSTAR          = .18789696E-3
MEAN_MOTION_DOT = .2921E-4
MEAN_MOTION_DDOT = 0

CCSDS_OMM_VERS = 2.0
CREATION_DATE  = 
ORIGINATOR     = 

OBJECT_NAME    = ENVISAT
OBJECT_ID      = 2002-009A
CENTER_NAME    = EARTH
REF_FRAME      = TEME
TIME_SYSTEM    = UTC
MEAN_ELEMENT_THEORY = SGP/SGP4

EPOCH          = 2026-02-18T07:15:50.961888
MEAN_MOTION    = 14.39029327
ECCENTRICITY   = .00013651
INCLINATION    = 98.3697
RA_OF_ASC_NODE = 3.3658
ARG_OF_PERICENTER = 87.4614
MEAN_ANOMALY   = 79.1952

EPHEMERIS_TYPE = 0
CLASSIFICATION_TYPE = U
NORAD_CAT_ID   = 27386
ELEMENT_SET_NO = 999
REV_AT_EPOCH   = 25638
BSTAR          = .51449107E-4
MEAN_MOTION_DOT = .116E-5
MEAN_MOTION_DDOT = 0

