SL-16 R/B               
1 25400U 98043G   26048.73500806  .00000056  00000+0  42454-4 0  9997
2 25400  98.8221   1.9612 0010948  73.8652 286.3732 14.26044834436140
SL-16 R/B               
1 25407U 98045B   26048.72528615  .00000254  00000+0  15234-3 0  9998
2 25407  71.0091 223.5570 0005768  43.4635 316.6942 14.16189616424276
ISS (ZARYA)             
1 25544U 98067A   26049.21532624  .00009407  00000+0  18044-3 0  9995
2 25544  51.6322 168.6154 0010954 110.1068 250.1100 15.48678459553311
CZ-4B R/B               
1 25732U 99025C   26049.11608405  .00000047  00000+0  43425-4 0  9992
2 25732  98.6667  93.8575 0037782  42.6131 340.6425 14.18261343385399
OKEAN-O                 
1 25860U 99039A   26049.18485256  .00000687  00000+0  97021-4 0  9994
2 25860  97.9486 109.2705 0001752  79.9783 280.1627 14.80302526431508
SL-16 R/B               
1 25861U 99039B   26049.11560356  .00000543  00000+0  75686-4 0  9997
2 25861  98.0010 108.2371 0013927 325.4730  34.5577 14.81702805433962
DELTA 2 R/B             
1 25876U 99041E   26049.25673785  .00001764  00000+0  32125-3 0  9998
2 25876  51.7660  18.8861 0502221 291.0392  63.7535 14.11764336360289
HELIOS 1B               
1 25977U 99064A   26049.20818989  .00001808  00000+0  20533-3 0  9996
2 25977  98.1719 310.8772 0002334 100.7799 259.3679 14.87613678682367
TERRA                   
1 25994U 99068A   26049.26062161  .00000443  00000+0  99366-4 0  9993
2 25994  97.9635 103.4335 0001318 210.5290 188.0114 14.60992822392247
SL-16 R/B               
1 26070U 00006B   26049.23005064 -.00000095  00000+0 -24054-4 0  9996
2 26070  71.0023 138.7546 0017962 217.4262 142.5611 14.15818379345800
TITAN 4B R/B            
1 26474U 00047B   26049.21540438  .00002921  00000+0  18790-3 0  9993
2 26474  67.9879  95.2654 0037310  59.0735 301.4072 15.09384542389979
ENVISAT                 
1 27386U 02009A   26049.30267317  .00000116  00000+0  51449-4 0  9991
2 27386  98.3697   3.3658 0001365  87.4614  79.1952 14.39029327256387
